start=new Date('2023-01-30T00:00:00.000Z').valueOf();
sats=[{"TLE_LINE1":"1 47666U 21012AY  23029.88722827 -.00000505  00000-0 -15023-4 0  9992","OBJECT_NAME":"STARLINK-2057","EPHEMERIS_TYPE":"0","MEAN_ANOMALY":"283.7832","CLASSIFICATION_TYPE":"U","ECCENTRICITY":"0.00012210","MEAN_MOTION_DDOT":"0.0000000000000","OBJECT_TYPE":"PAYLOAD","RCS_SIZE":"LARGE","PERIOD":"95.592","MEAN_MOTION_DOT":"-0.00000505","COUNTRY_CODE":"US","ELEMENT_SET_NO":"999","GP_ID":"223954812","BSTAR":"-0.00001502300000","MEAN_MOTION":"15.06397159","EPOCH":"2023-01-29T21:17:36.522528","TLE_LINE2":"2 47666  53.0544 101.3075 0001221  76.3293 283.7832 15.06397159109295","OBJECT_ID":"2021-012AY","SEMIMAJOR_AXIS":"6925.357","REV_AT_EPOCH":"10929","NORAD_CAT_ID":"47666","LAUNCH_DATE":"2021-02-16","ARG_OF_PERICENTER":"76.3293","PERIAPSIS":"546.377","DECAY_DATE":null,"REF_FRAME":"TEME","INCLINATION":"53.0544","APOAPSIS":"548.068","RA_OF_ASC_NODE":"101.3075","TIME_SYSTEM":"UTC","MEAN_ELEMENT_THEORY":"SGP4","CENTER_NAME":"EARTH","SITE":"AFETR","FILE":"3765015"},{"PERIAPSIS":"546.322","ARG_OF_PERICENTER":"84.4461","DECAY_DATE":null,"EPOCH":"2023-01-29T13:03:15.752448","SEMIMAJOR_AXIS":"6925.372","REV_AT_EPOCH":"10887","TLE_LINE2":"2 47667  53.0525 127.4888 0001321  84.4461 275.6679 15.06392375108871","OBJECT_ID":"2021-012AZ","LAUNCH_DATE":"2021-02-16","NORAD_CAT_ID":"47667","CENTER_NAME":"EARTH","TIME_SYSTEM":"UTC","MEAN_ELEMENT_THEORY":"SGP4","RA_OF_ASC_NODE":"127.4888","SITE":"AFETR","FILE":"3765015","APOAPSIS":"548.152","INCLINATION":"53.0525","REF_FRAME":"TEME","MEAN_MOTION_DDOT":"0.0000000000000","OBJECT_TYPE":"PAYLOAD","RCS_SIZE":"LARGE","OBJECT_NAME":"STARLINK-2058","TLE_LINE1":"1 47667U 21012AZ  23029.54393232 -.00000030  00000-0  16859-4 0  9990","CLASSIFICATION_TYPE":"U","MEAN_ANOMALY":"275.6679","EPHEMERIS_TYPE":"0","ECCENTRICITY":"0.00013210","GP_ID":"223955062","ELEMENT_SET_NO":"999","MEAN_MOTION":"15.06392375","BSTAR":"0.00001685900000","PERIOD":"95.593","MEAN_MOTION_DOT":"-0.00000030","COUNTRY_CODE":"US"},{"INCLINATION":"53.0560","REF_FRAME":"TEME","APOAPSIS":"548.165","FILE":"3765015","SITE":"AFETR","RA_OF_ASC_NODE":"105.8096","CENTER_NAME":"EARTH","TIME_SYSTEM":"UTC","MEAN_ELEMENT_THEORY":"SGP4","NORAD_CAT_ID":"47668","LAUNCH_DATE":"2021-02-16","TLE_LINE2":"2 47668  53.0560 105.8096 0001345  88.6206 271.4937 15.06393377109236","OBJECT_ID":"2021-012BA","REV_AT_EPOCH":"10923","SEMIMAJOR_AXIS":"6925.369","EPOCH":"2023-01-29T22:02:00.148992","DECAY_DATE":null,"ARG_OF_PERICENTER":"88.6206","PERIAPSIS":"546.302","COUNTRY_CODE":"US","MEAN_MOTION_DOT":"0.00000642","PERIOD":"95.593","BSTAR":"0.00006201200000","MEAN_MOTION":"15.06393377","GP_ID":"223955814","ELEMENT_SET_NO":"999","ECCENTRICITY":"0.00013450","MEAN_ANOMALY":"271.4937","EPHEMERIS_TYPE":"0","CLASSIFICATION_TYPE":"U","TLE_LINE1":"1 47668U 21012BA  23029.91805728  .00000642  00000-0  62012-4 0  9990","OBJECT_NAME":"STARLINK-2059","RCS_SIZE":"LARGE","OBJECT_TYPE":"PAYLOAD","MEAN_MOTION_DDOT":"0.0000000000000"},{"PERIOD":"94.691","MEAN_MOTION_DOT":"0.00046243","COUNTRY_CODE":"US","ELEMENT_SET_NO":"999","GP_ID":"223956564","MEAN_MOTION":"15.20730934","BSTAR":"0.00207680000000","OBJECT_NAME":"STARLINK-2060","TLE_LINE1":"1 47669U 21012BB  23029.45835825  .00046243  00000-0  20768-2 0  9998","CLASSIFICATION_TYPE":"U","EPHEMERIS_TYPE":"0","MEAN_ANOMALY":"258.2486","ECCENTRICITY":"0.00033700","MEAN_MOTION_DDOT":"0.0000000000000","OBJECT_TYPE":"PAYLOAD","RCS_SIZE":"LARGE","APOAPSIS":"505.956","INCLINATION":"53.0548","REF_FRAME":"TEME","MEAN_ELEMENT_THEORY":"SGP4","CENTER_NAME":"EARTH","TIME_SYSTEM":"UTC","RA_OF_ASC_NODE":"21.7533","SITE":"AFETR","FILE":"3765015","EPOCH":"2023-01-29T11:00:02.152800","REV_AT_EPOCH":"11034","SEMIMAJOR_AXIS":"6881.772","OBJECT_ID":"2021-012BB","TLE_LINE2":"2 47669  53.0548  21.7533 0003370 101.8887 258.2486 15.20730934110344","LAUNCH_DATE":"2021-02-16","NORAD_CAT_ID":"47669","PERIAPSIS":"501.317","ARG_OF_PERICENTER":"101.8887","DECAY_DATE":null},{"PERIOD":"95.592","MEAN_MOTION_DOT":"0.00000520","COUNTRY_CODE":"US","GP_ID":"223955312","ELEMENT_SET_NO":"999","MEAN_MOTION":"15.06397073","BSTAR":"0.00005378400000","TLE_LINE1":"1 47670U 21012BC  23029.93279646  .00000520  00000-0  53784-4 0  9990","OBJECT_NAME":"STARLINK-2062","EPHEMERIS_TYPE":"0","MEAN_ANOMALY":"260.0297","CLASSIFICATION_TYPE":"U","ECCENTRICITY":"0.00012600","MEAN_MOTION_DDOT":"0.0000000000000","OBJECT_TYPE":"PAYLOAD","RCS_SIZE":"LARGE","REF_FRAME":"TEME","INCLINATION":"53.0551","APOAPSIS":"548.095","RA_OF_ASC_NODE":"105.7492","CENTER_NAME":"EARTH","TIME_SYSTEM":"UTC","MEAN_ELEMENT_THEORY":"SGP4","SITE":"AFETR","FILE":"3765015","EPOCH":"2023-01-29T22:23:13.614144","OBJECT_ID":"2021-012BC","TLE_LINE2":"2 47670  53.0551 105.7492 0001260 100.0834 260.0297 15.06397073109229","REV_AT_EPOCH":"10922","SEMIMAJOR_AXIS":"6925.358","NORAD_CAT_ID":"47670","LAUNCH_DATE":"2021-02-16","PERIAPSIS":"546.350","ARG_OF_PERICENTER":"100.0834","DECAY_DATE":null},{"ECCENTRICITY":"0.00014560","OBJECT_NAME":"STARLINK-2064","TLE_LINE1":"1 47671U 21012BD  23029.51629109 -.00000630  00000-0 -23385-4 0  9996","CLASSIFICATION_TYPE":"U","EPHEMERIS_TYPE":"0","MEAN_ANOMALY":"258.5479","OBJECT_TYPE":"PAYLOAD","RCS_SIZE":"LARGE","MEAN_MOTION_DDOT":"0.0000000000000","COUNTRY_CODE":"US","PERIOD":"95.592","MEAN_MOTION_DOT":"-0.00000630","MEAN_MOTION":"15.06394395","BSTAR":"-0.00002338500000","GP_ID":"223955562","ELEMENT_SET_NO":"999","REV_AT_EPOCH":"10917","SEMIMAJOR_AXIS":"6925.366","TLE_LINE2":"2 47671  53.0563 107.6142 0001456 101.5674 258.5479 15.06394395109173","OBJECT_ID":"2021-012BD","LAUNCH_DATE":"2021-02-16","NORAD_CAT_ID":"47671","EPOCH":"2023-01-29T12:23:27.550176","DECAY_DATE":null,"PERIAPSIS":"546.222","ARG_OF_PERICENTER":"101.5674","APOAPSIS":"548.239","INCLINATION":"53.0563","REF_FRAME":"TEME","SITE":"AFETR","FILE":"3765015","CENTER_NAME":"EARTH","TIME_SYSTEM":"UTC","MEAN_ELEMENT_THEORY":"SGP4","RA_OF_ASC_NODE":"107.6142"},{"MEAN_MOTION":"15.06385994","BSTAR":"0.00051364000000","GP_ID":"223956314","ELEMENT_SET_NO":"999","COUNTRY_CODE":"US","MEAN_MOTION_DOT":"0.00007375","PERIOD":"95.593","RCS_SIZE":"LARGE","OBJECT_TYPE":"PAYLOAD","MEAN_MOTION_DDOT":"0.0000000000000","ECCENTRICITY":"0.00013520","MEAN_ANOMALY":"295.9908","EPHEMERIS_TYPE":"0","CLASSIFICATION_TYPE":"U","TLE_LINE1":"1 47672U 21012BE  23029.89317173  .00007375  00000-0  51364-3 0  9991","OBJECT_NAME":"STARLINK-2065","FILE":"3765015","SITE":"AFETR","RA_OF_ASC_NODE":"95.9267","CENTER_NAME":"EARTH","TIME_SYSTEM":"UTC","MEAN_ELEMENT_THEORY":"SGP4","REF_FRAME":"TEME","INCLINATION":"53.0520","APOAPSIS":"548.193","DECAY_DATE":null,"ARG_OF_PERICENTER":"64.1220","PERIAPSIS":"546.320","NORAD_CAT_ID":"47672","LAUNCH_DATE":"2021-02-16","TLE_LINE2":"2 47672  53.0520  95.9267 0001352  64.1220 295.9908 15.06385994109346","OBJECT_ID":"2021-012BE","SEMIMAJOR_AXIS":"6925.391","REV_AT_EPOCH":"10934","EPOCH":"2023-01-29T21:26:10.037472"},{"PERIAPSIS":"546.327","ARG_OF_PERICENTER":"67.6848","DECAY_DATE":null,"EPOCH":"2023-01-29T22:28:31.967040","LAUNCH_DATE":"2021-02-16","NORAD_CAT_ID":"47673","REV_AT_EPOCH":"10922","SEMIMAJOR_AXIS":"6925.354","TLE_LINE2":"2 47673  53.0531 105.7315 0001287  67.6848 292.4277 15.06398348109229","OBJECT_ID":"2021-012BF","CENTER_NAME":"EARTH","MEAN_ELEMENT_THEORY":"SGP4","TIME_SYSTEM":"UTC","RA_OF_ASC_NODE":"105.7315","FILE":"3765015","SITE":"AFETR","APOAPSIS":"548.110","INCLINATION":"53.0531","REF_FRAME":"TEME","MEAN_MOTION_DDOT":"0.0000000000000","RCS_SIZE":"LARGE","OBJECT_TYPE":"PAYLOAD","CLASSIFICATION_TYPE":"U","MEAN_ANOMALY":"292.4277","EPHEMERIS_TYPE":"0","OBJECT_NAME":"STARLINK-2066","TLE_LINE1":"1 47673U 21012BF  23029.93648110  .00000307  00000-0  39519-4 0  9992","ECCENTRICITY":"0.00012870","ELEMENT_SET_NO":"999","GP_ID":"223956065","BSTAR":"0.00003951900000","MEAN_MOTION":"15.06398348","MEAN_MOTION_DOT":"0.00000307","PERIOD":"95.592","COUNTRY_CODE":"US"},{"GP_ID":"223954813","ELEMENT_SET_NO":"999","BSTAR":"0.00126530000000","MEAN_MOTION":"15.06392923","PERIOD":"95.593","MEAN_MOTION_DOT":"0.00018612","COUNTRY_CODE":"US","MEAN_MOTION_DDOT":"0.0000000000000","OBJECT_TYPE":"PAYLOAD","RCS_SIZE":"LARGE","OBJECT_NAME":"STARLINK-2067","TLE_LINE1":"1 47674U 21012BG  23029.41951249  .00018612  00000-0  12653-2 0  9992","CLASSIFICATION_TYPE":"U","MEAN_ANOMALY":"252.9274","EPHEMERIS_TYPE":"0","ECCENTRICITY":"0.00017990","CENTER_NAME":"EARTH","TIME_SYSTEM":"UTC","MEAN_ELEMENT_THEORY":"SGP4","RA_OF_ASC_NODE":"108.0383","SITE":"AFETR","FILE":"3765015","APOAPSIS":"548.481","REF_FRAME":"TEME","INCLINATION":"53.0520","PERIAPSIS":"545.989","ARG_OF_PERICENTER":"107.1912","DECAY_DATE":null,"EPOCH":"2023-01-29T10:04:05.879136","REV_AT_EPOCH":"10915","SEMIMAJOR_AXIS":"6925.370","TLE_LINE2":"2 47674  53.0520 108.0383 0001799 107.1912 252.9274 15.06392923109152","OBJECT_ID":"2021-012BG","LAUNCH_DATE":"2021-02-16","NORAD_CAT_ID":"47674"},{"COUNTRY_CODE":"US","MEAN_MOTION_DOT":"0.00000139","PERIOD":"95.592","BSTAR":"0.00002820500000","MEAN_MOTION":"15.06398694","GP_ID":"223955063","ELEMENT_SET_NO":"999","ECCENTRICITY":"0.00011190","CLASSIFICATION_TYPE":"U","MEAN_ANOMALY":"258.8413","EPHEMERIS_TYPE":"0","OBJECT_NAME":"STARLINK-2078","TLE_LINE1":"1 47675U 21012BH  23029.47942449  .00000139  00000-0  28205-4 0  9998","RCS_SIZE":"LARGE","OBJECT_TYPE":"PAYLOAD","MEAN_MOTION_DDOT":"0.0000000000000","APOAPSIS":"547.993","INCLINATION":"53.0556","REF_FRAME":"TEME","FILE":"3765015","SITE":"AFETR","CENTER_NAME":"EARTH","MEAN_ELEMENT_THEORY":"SGP4","TIME_SYSTEM":"UTC","RA_OF_ASC_NODE":"107.7782","LAUNCH_DATE":"2021-02-16","NORAD_CAT_ID":"47675","REV_AT_EPOCH":"10916","SEMIMAJOR_AXIS":"6925.353","TLE_LINE2":"2 47675  53.0556 107.7782 0001119 101.2701 258.8413 15.06398694109160","OBJECT_ID":"2021-012BH","EPOCH":"2023-01-29T11:30:22.275936","DECAY_DATE":null,"PERIAPSIS":"546.443","ARG_OF_PERICENTER":"101.2701"}];
